CCSDS_OMM_VERS = 2.0
CREATION_DATE  = 
ORIGINATOR     = 

OBJECT_NAME    = TWILIGHT-1 OBJECT AN
OBJECT_ID      = 2026-004AN
CENTER_NAME    = EARTH
REF_FRAME      = TEME
TIME_SYSTEM    = UTC
MEAN_ELEMENT_THEORY = SGP/SGP4

EPOCH          = 2026-02-09T14:51:14.964480
MEAN_MOTION    = 15.18143037
ECCENTRICITY   = .0009451
INCLINATION    = 97.4560
RA_OF_ASC_NODE = 41.5560
ARG_OF_PERICENTER = 74.6959
MEAN_ANOMALY   = 285.5319

EPHEMERIS_TYPE = 0
CLASSIFICATION_TYPE = U
NORAD_CAT_ID   = 67399
ELEMENT_SET_NO = 999
REV_AT_EPOCH   = 440
BSTAR          = .35268E-3
MEAN_MOTION_DOT = .7142E-4
MEAN_MOTION_DDOT = 0

CCSDS_OMM_VERS = 2.0
CREATION_DATE  = 
ORIGINATOR     = 

OBJECT_NAME    = CONNECTA IOT-13
OBJECT_ID      = 2026-004AP
CENTER_NAME    = EARTH
REF_FRAME      = TEME
TIME_SYSTEM    = UTC
MEAN_ELEMENT_THEORY = SGP/SGP4

EPOCH          = 2026-02-09T13:09:12.227616
MEAN_MOTION    = 15.18089319
ECCENTRICITY   = .0011064
INCLINATION    = 97.4566
RA_OF_ASC_NODE = 41.4957
ARG_OF_PERICENTER = 73.9805
MEAN_ANOMALY   = 286.2647

EPHEMERIS_TYPE = 0
CLASSIFICATION_TYPE = U
NORAD_CAT_ID   = 67400
ELEMENT_SET_NO = 999
REV_AT_EPOCH   = 439
BSTAR          = .14363E-3
MEAN_MOTION_DOT = .2864E-4
MEAN_MOTION_DDOT = 0

CCSDS_OMM_VERS = 2.0
CREATION_DATE  = 
ORIGINATOR     = 

OBJECT_NAME    = CONNECTA IOT-14
OBJECT_ID      = 2026-004AQ
CENTER_NAME    = EARTH
REF_FRAME      = TEME
TIME_SYSTEM    = UTC
MEAN_ELEMENT_THEORY = SGP/SGP4

EPOCH          = 2026-02-09T13:05:10.965984
MEAN_MOTION    = 15.18534958
ECCENTRICITY   = .0011307
INCLINATION    = 97.4505
RA_OF_ASC_NODE = 41.4779
ARG_OF_PERICENTER = 69.4914
MEAN_ANOMALY   = 290.7533

EPHEMERIS_TYPE = 0
CLASSIFICATION_TYPE = U
NORAD_CAT_ID   = 67401
ELEMENT_SET_NO = 999
REV_AT_EPOCH   = 439
BSTAR          = .55543E-3
MEAN_MOTION_DOT = .11427E-3
MEAN_MOTION_DDOT = 0

CCSDS_OMM_VERS = 2.0
CREATION_DATE  = 
ORIGINATOR     = 

OBJECT_NAME    = CONNECTA IOT-15
OBJECT_ID      = 2026-004AR
CENTER_NAME    = EARTH
REF_FRAME      = TEME
TIME_SYSTEM    = UTC
MEAN_ELEMENT_THEORY = SGP/SGP4

EPOCH          = 2026-02-09T13:49:43.400928
MEAN_MOTION    = 15.16678141
ECCENTRICITY   = .0005028
INCLINATION    = 97.4561
RA_OF_ASC_NODE = 41.4615
ARG_OF_PERICENTER = 61.4741
MEAN_ANOMALY   = 298.6998

EPHEMERIS_TYPE = 0
CLASSIFICATION_TYPE = U
NORAD_CAT_ID   = 67402
ELEMENT_SET_NO = 999
REV_AT_EPOCH   = 438
BSTAR          = .58368E-3
MEAN_MOTION_DOT = .11374E-3
MEAN_MOTION_DDOT = 0

CCSDS_OMM_VERS = 2.0
CREATION_DATE  = 
ORIGINATOR     = 

OBJECT_NAME    = SHIJIAN-29B (SJ-29B)
OBJECT_ID      = 2025-315C
CENTER_NAME    = EARTH
REF_FRAME      = TEME
TIME_SYSTEM    = UTC
MEAN_ELEMENT_THEORY = SGP/SGP4

EPOCH          = 2026-02-09T18:40:41.264832
MEAN_MOTION    = 1.00272538
ECCENTRICITY   = .0002631
INCLINATION    = 3.0746
RA_OF_ASC_NODE = 98.4424
ARG_OF_PERICENTER = 314.4022
MEAN_ANOMALY   = 80.2927

EPHEMERIS_TYPE = 0
CLASSIFICATION_TYPE = U
NORAD_CAT_ID   = 67403
ELEMENT_SET_NO = 999
REV_AT_EPOCH   = 41
BSTAR          = 0
MEAN_MOTION_DOT = -.61E-6
MEAN_MOTION_DDOT = 0

CCSDS_OMM_VERS = 2.0
CREATION_DATE  = 
ORIGINATOR     = 

OBJECT_NAME    = STARLINK-36484
OBJECT_ID      = 2026-005A
CENTER_NAME    = EARTH
REF_FRAME      = TEME
TIME_SYSTEM    = UTC
MEAN_ELEMENT_THEORY = SGP/SGP4

EPOCH          = 2026-02-09T11:34:33.216096
MEAN_MOTION    = 15.40724136
ECCENTRICITY   = .0001389
INCLINATION    = 43.0013
RA_OF_ASC_NODE = 39.7918
ARG_OF_PERICENTER = 275.0361
MEAN_ANOMALY   = 85.0337

EPHEMERIS_TYPE = 0
CLASSIFICATION_TYPE = U
NORAD_CAT_ID   = 67404
ELEMENT_SET_NO = 999
REV_AT_EPOCH   = 435
BSTAR          = .58279E-3
MEAN_MOTION_DOT = .24137E-3
MEAN_MOTION_DDOT = 0

CCSDS_OMM_VERS = 2.0
CREATION_DATE  = 
ORIGINATOR     = 

OBJECT_NAME    = STARLINK-36452
OBJECT_ID      = 2026-005B
CENTER_NAME    = EARTH
REF_FRAME      = TEME
TIME_SYSTEM    = UTC
MEAN_ELEMENT_THEORY = SGP/SGP4

EPOCH          = 2026-02-09T20:00:01.999008
MEAN_MOTION    = 15.40648566
ECCENTRICITY   = .0000974
INCLINATION    = 43.0006
RA_OF_ASC_NODE = 37.3152
ARG_OF_PERICENTER = 268.5472
MEAN_ANOMALY   = 67.4210

EPHEMERIS_TYPE = 0
CLASSIFICATION_TYPE = U
NORAD_CAT_ID   = 67405
ELEMENT_SET_NO = 999
REV_AT_EPOCH   = 566
BSTAR          = .15656E-2
MEAN_MOTION_DOT = .65548E-3
MEAN_MOTION_DDOT = 0

CCSDS_OMM_VERS = 2.0
CREATION_DATE  = 
ORIGINATOR     = 

OBJECT_NAME    = STARLINK-36409
OBJECT_ID      = 2026-005C
CENTER_NAME    = EARTH
REF_FRAME      = TEME
TIME_SYSTEM    = UTC
MEAN_ELEMENT_THEORY = SGP/SGP4

EPOCH          = 2026-02-09T20:00:01.999008
MEAN_MOTION    = 15.40645348
ECCENTRICITY   = .0001503
INCLINATION    = 43.0010
RA_OF_ASC_NODE = 37.5567
ARG_OF_PERICENTER = 268.8129
MEAN_ANOMALY   = 327.6569

EPHEMERIS_TYPE = 0
CLASSIFICATION_TYPE = U
NORAD_CAT_ID   = 67406
ELEMENT_SET_NO = 999
REV_AT_EPOCH   = 571
BSTAR          = .11573E-2
MEAN_MOTION_DOT = .48259E-3
MEAN_MOTION_DDOT = 0

CCSDS_OMM_VERS = 2.0
CREATION_DATE  = 
ORIGINATOR     = 

OBJECT_NAME    = STARLINK-36510
OBJECT_ID      = 2026-005D
CENTER_NAME    = EARTH
REF_FRAME      = TEME
TIME_SYSTEM    = UTC
MEAN_ELEMENT_THEORY = SGP/SGP4

EPOCH          = 2026-02-09T09:03:54.408384
MEAN_MOTION    = 15.50620168
ECCENTRICITY   = .00010346
INCLINATION    = 43.0007
RA_OF_ASC_NODE = 39.8557
ARG_OF_PERICENTER = 262.1116
MEAN_ANOMALY   = 97.9627

EPHEMERIS_TYPE = 0
CLASSIFICATION_TYPE = U
NORAD_CAT_ID   = 67407
ELEMENT_SET_NO = 999
REV_AT_EPOCH   = 434
BSTAR          = .23762762E-2
MEAN_MOTION_DOT = .141824E-2
MEAN_MOTION_DDOT = 0

CCSDS_OMM_VERS = 2.0
CREATION_DATE  = 
ORIGINATOR     = 

OBJECT_NAME    = STARLINK-36509
OBJECT_ID      = 2026-005E
CENTER_NAME    = EARTH
REF_FRAME      = TEME
TIME_SYSTEM    = UTC
MEAN_ELEMENT_THEORY = SGP/SGP4

EPOCH          = 2026-02-09T20:00:01.999008
MEAN_MOTION    = 15.40639026
ECCENTRICITY   = .0001352
INCLINATION    = 43.0011
RA_OF_ASC_NODE = 37.4362
ARG_OF_PERICENTER = 255.6145
MEAN_ANOMALY   = 30.6177

EPHEMERIS_TYPE = 0
CLASSIFICATION_TYPE = U
NORAD_CAT_ID   = 67408
ELEMENT_SET_NO = 999
REV_AT_EPOCH   = 571
BSTAR          = .13576E-2
MEAN_MOTION_DOT = .56716E-3
MEAN_MOTION_DDOT = 0

CCSDS_OMM_VERS = 2.0
CREATION_DATE  = 
ORIGINATOR     = 

OBJECT_NAME    = STARLINK-36507
OBJECT_ID      = 2026-005F
CENTER_NAME    = EARTH
REF_FRAME      = TEME
TIME_SYSTEM    = UTC
MEAN_ELEMENT_THEORY = SGP/SGP4

EPOCH          = 2026-02-09T20:00:01.999008
MEAN_MOTION    = 15.45037742
ECCENTRICITY   = .0001256
INCLINATION    = 43.0000
RA_OF_ASC_NODE = 37.2124
ARG_OF_PERICENTER = 259.3239
MEAN_ANOMALY   = 118.8477

EPHEMERIS_TYPE = 0
CLASSIFICATION_TYPE = U
NORAD_CAT_ID   = 67409
ELEMENT_SET_NO = 999
REV_AT_EPOCH   = 571
BSTAR          = -.47535E-1
MEAN_MOTION_DOT = -.2043901E-1
MEAN_MOTION_DDOT = 0

CCSDS_OMM_VERS = 2.0
CREATION_DATE  = 
ORIGINATOR     = 

OBJECT_NAME    = STARLINK-36508
OBJECT_ID      = 2026-005G
CENTER_NAME    = EARTH
REF_FRAME      = TEME
TIME_SYSTEM    = UTC
MEAN_ELEMENT_THEORY = SGP/SGP4

EPOCH          = 2026-02-09T09:51:31.454208
MEAN_MOTION    = 15.40714912
ECCENTRICITY   = .00016902
INCLINATION    = 43.0017
RA_OF_ASC_NODE = 40.1110
ARG_OF_PERICENTER = 249.8302
MEAN_ANOMALY   = 110.2372

EPHEMERIS_TYPE = 0
CLASSIFICATION_TYPE = U
NORAD_CAT_ID   = 67410
ELEMENT_SET_NO = 999
REV_AT_EPOCH   = 434
BSTAR          = .73661098E-3
MEAN_MOTION_DOT = .30605E-3
MEAN_MOTION_DDOT = 0

