TWILIGHT-1 OBJECT AN    
1 67399U 26004AN  26040.61892320  .00007142  00000+0  35268-3 0  9999
2 67399  97.4560  41.5560 0009451  74.6959 285.5319 15.18143037  4401
CONNECTA IOT-13         
1 67400U 26004AP  26040.54805819  .00002864  00000+0  14363-3 0  9990
2 67400  97.4566  41.4957 0011064  73.9805 286.2647 15.18089319  4396
CONNECTA IOT-14         
1 67401U 26004AQ  26040.54526581  .00011427  00000+0  55543-3 0  9997
2 67401  97.4505  41.4779 0011307  69.4914 290.7533 15.18534958  4391
CONNECTA IOT-15         
1 67402U 26004AR  26040.57619677  .00011374  00000+0  58368-3 0  9999
2 67402  97.4561  41.4615 0005028  61.4741 298.6998 15.16678141  4388
SHIJIAN-29B (SJ-29B)    
1 67403U 25315C   26040.77825538 -.00000061  00000+0  00000+0 0  9999
2 67403   3.0746  98.4424 0002631 314.4022  80.2927  1.00272538   412
STARLINK-36484          
1 67404U 26005A   26040.48232889  .00024137  00000+0  58279-3 0  9990
2 67404  43.0013  39.7918 0001389 275.0361  85.0337 15.40724136  4357
STARLINK-36452          
1 67405U 26005B   26040.83335647  .00065548  00000+0  15656-2 0  9998
2 67405  43.0006  37.3152 0000974 268.5472  67.4210 15.40648566  5664
STARLINK-36409          
1 67406U 26005C   26040.83335647  .00048259  00000+0  11573-2 0  9993
2 67406  43.0010  37.5567 0001503 268.8129 327.6569 15.40645348  5712
STARLINK-36510          
1 67407U 26005D   26040.37771306  .00141824  00000+0  23763-2 0  9995
2 67407  43.0007  39.8557 0001034 262.1116  97.9627 15.50620168  4349
STARLINK-36509          
1 67408U 26005E   26040.83335647  .00056716  00000+0  13576-2 0  9997
2 67408  43.0011  37.4362 0001352 255.6145  30.6177 15.40639026  5713
STARLINK-36507          
1 67409U 26005F   26040.83335647 -.02043901  00000+0 -47535-1 0  9995
2 67409  43.0000  37.2124 0001256 259.3239 118.8477 15.45037742  5718
STARLINK-36508          
1 67410U 26005G   26040.41078072  .00030605  00000+0  73661-3 0  9991
2 67410  43.0017  40.1110 0001690 249.8302 110.2372 15.40714912  4347
